[{"code":"AF","name":"Afghanistan","geonameId":1149361,"nameKo":"아프가니스탄"},{"code":"AX","name":"Aland Islands","geonameId":661882,"nameKo":"올란드 제도"},{"code":"AL","name":"Albania","geonameId":783754,"nameKo":"알바니아"},{"code":"DZ","name":"Algeria","geonameId":2589581,"nameKo":"알제리"},{"code":"AS","name":"American Samoa","geonameId":5880801,"nameKo":"아메리칸 사모아"},{"code":"AD","name":"Andorra","geonameId":3041565,"nameKo":"안도라"},{"code":"AO","name":"Angola","geonameId":3351879,"nameKo":"앙골라"},{"code":"AI","name":"Anguilla","geonameId":3573511,"nameKo":"앵귈라"},{"code":"AQ","name":"Antarctica","geonameId":6697173,"nameKo":"남극 대륙"},{"code":"AG","name":"Antigua and Barbuda","geonameId":3576396,"nameKo":"앤티가 바부다"},{"code":"AR","name":"Argentina","geonameId":3865483,"nameKo":"아르헨티나"},{"code":"AM","name":"Armenia","geonameId":174982,"nameKo":"아르메니아"},{"code":"AW","name":"Aruba","geonameId":3577279,"nameKo":"아루바"},{"code":"AU","name":"Australia","geonameId":2077456,"nameKo":"호주"},{"code":"AT","name":"Austria","geonameId":2782113,"nameKo":"오스트리아"},{"code":"AZ","name":"Azerbaijan","geonameId":587116,"nameKo":"아제르바이잔"},{"code":"BS","name":"Bahamas","geonameId":3572887,"nameKo":"바하마"},{"code":"BH","name":"Bahrain","geonameId":290291,"nameKo":"바레인"},{"code":"BD","name":"Bangladesh","geonameId":1210997,"nameKo":"방글라데시"},{"code":"BB","name":"Barbados","geonameId":3374084,"nameKo":"바베이도스"},{"code":"BY","name":"Belarus","geonameId":630336,"nameKo":"벨라루스"},{"code":"BE","name":"Belgium","geonameId":2802361,"nameKo":"벨기에"},{"code":"BZ","name":"Belize","geonameId":3582678,"nameKo":"벨리즈"},{"code":"BJ","name":"Benin","geonameId":2395170,"nameKo":"베냉"},{"code":"BM","name":"Bermuda","geonameId":3573345,"nameKo":"버뮤다"},{"code":"BT","name":"Bhutan","geonameId":1252634,"nameKo":"부탄"},{"code":"BO","name":"Bolivia","geonameId":3923057,"nameKo":"볼리비아"},{"code":"BQ","name":"Bonaire, Saint Eustatius and Saba ","geonameId":7626844,"nameKo":"네덜란드령 카리브"},{"code":"BA","name":"Bosnia and Herzegovina","geonameId":3277605,"nameKo":"보스니아 헤르체고비나"},{"code":"BW","name":"Botswana","geonameId":933860,"nameKo":"보츠와나"},{"code":"BV","name":"Bouvet Island","geonameId":3371123,"nameKo":"부베섬"},{"code":"BR","name":"Brazil","geonameId":3469034,"nameKo":"브라질"},{"code":"IO","name":"British Indian Ocean Territory","geonameId":1282588,"nameKo":"영국령 인도양 식민지"},{"code":"VG","name":"British Virgin Islands","geonameId":3577718,"nameKo":"영국령 버진아일랜드"},{"code":"BN","name":"Brunei","geonameId":1820814,"nameKo":"브루나이"},{"code":"BG","name":"Bulgaria","geonameId":732800,"nameKo":"불가리아"},{"code":"BF","name":"Burkina Faso","geonameId":2361809,"nameKo":"부르키나 파소"},{"code":"BI","name":"Burundi","geonameId":433561,"nameKo":"부룬디"},{"code":"CV","name":"Cabo Verde","geonameId":3374766,"nameKo":"카보베르데"},{"code":"KH","name":"Cambodia","geonameId":1831722,"nameKo":"캄보디아"},{"code":"CM","name":"Cameroon","geonameId":2233387,"nameKo":"카메룬"},{"code":"CA","name":"Canada","geonameId":6251999,"nameKo":"캐나다"},{"code":"KY","name":"Cayman Islands","geonameId":3580718,"nameKo":"케이맨 제도"},{"code":"CF","name":"Central African Republic","geonameId":239880,"nameKo":"중앙 아프리카 공화국"},{"code":"TD","name":"Chad","geonameId":2434508,"nameKo":"챠드"},{"code":"CL","name":"Chile","geonameId":3895114,"nameKo":"칠레"},{"code":"CN","name":"China","geonameId":1814991,"nameKo":"중국"},{"code":"CX","name":"Christmas Island","geonameId":2078138,"nameKo":"크리스마스섬"},{"code":"CC","name":"Cocos Islands","geonameId":1547376,"nameKo":"코코스 제도"},{"code":"CO","name":"Colombia","geonameId":3686110,"nameKo":"콜롬비아"},{"code":"KM","name":"Comoros","geonameId":921929,"nameKo":"코모로"},{"code":"CK","name":"Cook Islands","geonameId":1899402,"nameKo":"쿡 제도"},{"code":"CR","name":"Costa Rica","geonameId":3624060,"nameKo":"코스타리카"},{"code":"HR","name":"Croatia","geonameId":3202326,"nameKo":"크로아티아"},{"code":"CU","name":"Cuba","geonameId":3562981,"nameKo":"쿠바"},{"code":"CW","name":"Curacao","geonameId":7626836,"nameKo":"퀴라소"},{"code":"CY","name":"Cyprus","geonameId":146669,"nameKo":"키프로스"},{"code":"CZ","name":"Czechia","geonameId":3077311,"nameKo":"체코공화국"},{"code":"CD","name":"Democratic Republic of the Congo","geonameId":203312,"nameKo":"콩고 민주 공화국"},{"code":"DK","name":"Denmark","geonameId":2623032,"nameKo":"덴마크"},{"code":"DJ","name":"Djibouti","geonameId":223816,"nameKo":"지부티"},{"code":"DM","name":"Dominica","geonameId":3575830,"nameKo":"도미니카"},{"code":"DO","name":"Dominican Republic","geonameId":3508796,"nameKo":"도미니카 공화국"},{"code":"EC","name":"Ecuador","geonameId":3658394,"nameKo":"에콰도르"},{"code":"EG","name":"Egypt","geonameId":357994,"nameKo":"이집트"},{"code":"SV","name":"El Salvador","geonameId":3585968,"nameKo":"엘살바도르"},{"code":"GQ","name":"Equatorial Guinea","geonameId":2309096,"nameKo":"적도 기니"},{"code":"ER","name":"Eritrea","geonameId":338010,"nameKo":"에리트리아"},{"code":"EE","name":"Estonia","geonameId":453733,"nameKo":"에스토니아"},{"code":"SZ","name":"Eswatini","geonameId":934841,"nameKo":"스와질란드"},{"code":"ET","name":"Ethiopia","geonameId":337996,"nameKo":"에티오피아"},{"code":"FK","name":"Falkland Islands","geonameId":3474414,"nameKo":"포클랜드 제도"},{"code":"FO","name":"Faroe Islands","geonameId":2622320,"nameKo":"페로제도"},{"code":"FJ","name":"Fiji","geonameId":2205218,"nameKo":"피지"},{"code":"FI","name":"Finland","geonameId":660013,"nameKo":"핀란드"},{"code":"FR","name":"France","geonameId":3017382,"nameKo":"프랑스"},{"code":"GF","name":"French Guiana","geonameId":3381670,"nameKo":"프랑스령 기아나"},{"code":"PF","name":"French Polynesia","geonameId":4030656,"nameKo":"프랑스령 폴리네시아"},{"code":"TF","name":"French Southern Territories","geonameId":1546748,"nameKo":"프랑스 남부 지방"},{"code":"GA","name":"Gabon","geonameId":2400553,"nameKo":"가봉"},{"code":"GM","name":"Gambia","geonameId":2413451,"nameKo":"감비아"},{"code":"GE","name":"Georgia","geonameId":614540,"nameKo":"조지아"},{"code":"DE","name":"Germany","geonameId":2921044,"nameKo":"독일"},{"code":"GH","name":"Ghana","geonameId":2300660,"nameKo":"가나"},{"code":"GI","name":"Gibraltar","geonameId":2411586,"nameKo":"지브롤터"},{"code":"GR","name":"Greece","geonameId":390903,"nameKo":"그리스"},{"code":"GL","name":"Greenland","geonameId":3425505,"nameKo":"그린란드"},{"code":"GD","name":"Grenada","geonameId":3580239,"nameKo":"그레나다"},{"code":"GP","name":"Guadeloupe","geonameId":3579143,"nameKo":"과들루프"},{"code":"GU","name":"Guam","geonameId":4043988,"nameKo":"괌"},{"code":"GT","name":"Guatemala","geonameId":3595528,"nameKo":"과테말라"},{"code":"GG","name":"Guernsey","geonameId":3042362,"nameKo":"건지"},{"code":"GN","name":"Guinea","geonameId":2420477,"nameKo":"기니"},{"code":"GW","name":"Guinea-Bissau","geonameId":2372248,"nameKo":"기네비소"},{"code":"GY","name":"Guyana","geonameId":3378535,"nameKo":"가이아나"},{"code":"HT","name":"Haiti","geonameId":3723988,"nameKo":"아이티"},{"code":"HM","name":"Heard Island and McDonald Islands","geonameId":1547314,"nameKo":"허드 맥도널드 제도"},{"code":"HN","name":"Honduras","geonameId":3608932,"nameKo":"온두라스"},{"code":"HK","name":"Hong Kong","geonameId":1819730,"nameKo":"홍콩"},{"code":"HU","name":"Hungary","geonameId":719819,"nameKo":"헝가리"},{"code":"IS","name":"Iceland","geonameId":2629691,"nameKo":"아이슬란드"},{"code":"IN","name":"India","geonameId":1269750,"nameKo":"인도"},{"code":"ID","name":"Indonesia","geonameId":1643084,"nameKo":"인도네시아"},{"code":"IR","name":"Iran","geonameId":130758,"nameKo":"이란"},{"code":"IQ","name":"Iraq","geonameId":99237,"nameKo":"이라크"},{"code":"IE","name":"Ireland","geonameId":2963597,"nameKo":"아일랜드"},{"code":"IM","name":"Isle of Man","geonameId":3042225,"nameKo":"맨섬"},{"code":"IL","name":"Israel","geonameId":294640,"nameKo":"이스라엘"},{"code":"IT","name":"Italy","geonameId":3175395,"nameKo":"이탈리아"},{"code":"CI","name":"Ivory Coast","geonameId":2287781,"nameKo":"코트디부아르"},{"code":"JM","name":"Jamaica","geonameId":3489940,"nameKo":"자메이카"},{"code":"JP","name":"Japan","geonameId":1861060,"nameKo":"일본"},{"code":"JE","name":"Jersey","geonameId":3042142,"nameKo":"저지"},{"code":"JO","name":"Jordan","geonameId":248816,"nameKo":"요르단"},{"code":"KZ","name":"Kazakhstan","geonameId":1522867,"nameKo":"카자흐스탄"},{"code":"KE","name":"Kenya","geonameId":192950,"nameKo":"케냐"},{"code":"KI","name":"Kiribati","geonameId":4030945,"nameKo":"키리바티"},{"code":"XK","name":"Kosovo","geonameId":831053,"nameKo":"코소보"},{"code":"KW","name":"Kuwait","geonameId":285570,"nameKo":"쿠웨이트"},{"code":"KG","name":"Kyrgyzstan","geonameId":1527747,"nameKo":"키르기스스탄"},{"code":"LA","name":"Laos","geonameId":1655842,"nameKo":"라오스"},{"code":"LV","name":"Latvia","geonameId":458258,"nameKo":"라트비아"},{"code":"LB","name":"Lebanon","geonameId":272103,"nameKo":"레바논"},{"code":"LS","name":"Lesotho","geonameId":932692,"nameKo":"레소토"},{"code":"LR","name":"Liberia","geonameId":2275384,"nameKo":"라이베리아"},{"code":"LY","name":"Libya","geonameId":2215636,"nameKo":"리비아"},{"code":"LI","name":"Liechtenstein","geonameId":3042058,"nameKo":"리히텐슈타인"},{"code":"LT","name":"Lithuania","geonameId":597427,"nameKo":"리투아니아"},{"code":"LU","name":"Luxembourg","geonameId":2960313,"nameKo":"룩셈부르크"},{"code":"MO","name":"Macao","geonameId":1821275,"nameKo":"마카오"},{"code":"MG","name":"Madagascar","geonameId":1062947,"nameKo":"마다카스카르"},{"code":"MW","name":"Malawi","geonameId":927384,"nameKo":"말라위"},{"code":"MY","name":"Malaysia","geonameId":1733045,"nameKo":"말레이시아"},{"code":"MV","name":"Maldives","geonameId":1282028,"nameKo":"몰디브"},{"code":"ML","name":"Mali","geonameId":2453866,"nameKo":"말리"},{"code":"MT","name":"Malta","geonameId":2562770,"nameKo":"몰타"},{"code":"MH","name":"Marshall Islands","geonameId":2080185,"nameKo":"마셜 제도"},{"code":"MQ","name":"Martinique","geonameId":3570311,"nameKo":"마르티니크"},{"code":"MR","name":"Mauritania","geonameId":2378080,"nameKo":"모리타니"},{"code":"MU","name":"Mauritius","geonameId":934292,"nameKo":"모리셔스"},{"code":"YT","name":"Mayotte","geonameId":1024031,"nameKo":"마요트"},{"code":"MX","name":"Mexico","geonameId":3996063,"nameKo":"멕시코"},{"code":"FM","name":"Micronesia","geonameId":2081918,"nameKo":"미크로네시아"},{"code":"MD","name":"Moldova","geonameId":617790,"nameKo":"몰도바"},{"code":"MC","name":"Monaco","geonameId":2993457,"nameKo":"모나코"},{"code":"MN","name":"Mongolia","geonameId":2029969,"nameKo":"몽골"},{"code":"ME","name":"Montenegro","geonameId":3194884,"nameKo":"몬테네그로"},{"code":"MS","name":"Montserrat","geonameId":3578097,"nameKo":"몬트세라트"},{"code":"MA","name":"Morocco","geonameId":2542007,"nameKo":"모로코"},{"code":"MZ","name":"Mozambique","geonameId":1036973,"nameKo":"모잠비크"},{"code":"MM","name":"Myanmar","geonameId":1327865,"nameKo":"미얀마"},{"code":"NA","name":"Namibia","geonameId":3355338,"nameKo":"나미비아"},{"code":"NR","name":"Nauru","geonameId":2110425,"nameKo":"나우루"},{"code":"NP","name":"Nepal","geonameId":1282988,"nameKo":"네팔"},{"code":"AN","name":"Netherlands Antilles","geonameId":8505032,"nameKo":"네덜란드령 안틸레스"},{"code":"NC","name":"New Caledonia","geonameId":2139685,"nameKo":"뉴칼레도니아"},{"code":"NZ","name":"New Zealand","geonameId":2186224,"nameKo":"뉴질랜드"},{"code":"NI","name":"Nicaragua","geonameId":3617476,"nameKo":"니카라과"},{"code":"NE","name":"Niger","geonameId":2440476,"nameKo":"니제르"},{"code":"NG","name":"Nigeria","geonameId":2328926,"nameKo":"나이지리아"},{"code":"NU","name":"Niue","geonameId":4036232,"nameKo":"니우에"},{"code":"NF","name":"Norfolk Island","geonameId":2155115,"nameKo":"노퍽섬"},{"code":"KP","name":"North Korea","geonameId":1873107,"nameKo":"북한"},{"code":"MK","name":"North Macedonia","geonameId":718075,"nameKo":"마케도니아 공화국"},{"code":"MP","name":"Northern Mariana Islands","geonameId":4041468,"nameKo":"북마리아나제도"},{"code":"NO","name":"Norway","geonameId":3144096,"nameKo":"노르웨이"},{"code":"OM","name":"Oman","geonameId":286963,"nameKo":"오만"},{"code":"PK","name":"Pakistan","geonameId":1168579,"nameKo":"파키스탄"},{"code":"PW","name":"Palau","geonameId":1559582,"nameKo":"팔라우"},{"code":"PS","name":"Palestinian Territory","geonameId":6254930,"nameKo":"팔레스타인"},{"code":"PA","name":"Panama","geonameId":3703430,"nameKo":"파나마"},{"code":"PG","name":"Papua New Guinea","geonameId":2088628,"nameKo":"파푸아뉴기니"},{"code":"PY","name":"Paraguay","geonameId":3437598,"nameKo":"파라과이"},{"code":"PE","name":"Peru","geonameId":3932488,"nameKo":"페루"},{"code":"PH","name":"Philippines","geonameId":1694008,"nameKo":"필리핀"},{"code":"PN","name":"Pitcairn","geonameId":4030699,"nameKo":"핏케언 제도"},{"code":"PL","name":"Poland","geonameId":798544,"nameKo":"폴란드"},{"code":"PT","name":"Portugal","geonameId":2264397,"nameKo":"포르투갈"},{"code":"PR","name":"Puerto Rico","geonameId":4566966,"nameKo":"푸에르토리코"},{"code":"QA","name":"Qatar","geonameId":289688,"nameKo":"카타르"},{"code":"CG","name":"Republic of the Congo","geonameId":2260494,"nameKo":"콩고 공화국"},{"code":"RE","name":"Reunion","geonameId":935317,"nameKo":"레위니옹"},{"code":"RO","name":"Romania","geonameId":798549,"nameKo":"루마니아"},{"code":"RU","name":"Russia","geonameId":2017370,"nameKo":"러시아"},{"code":"RW","name":"Rwanda","geonameId":49518,"nameKo":"르완다"},{"code":"BL","name":"Saint Barthelemy","geonameId":3578476,"nameKo":"생바르텔레미"},{"code":"SH","name":"Saint Helena","geonameId":3370751,"nameKo":"세인트헬레나"},{"code":"KN","name":"Saint Kitts and Nevis","geonameId":3575174,"nameKo":"세인트 키츠 네비스"},{"code":"LC","name":"Saint Lucia","geonameId":3576468,"nameKo":"세인트 루시아"},{"code":"MF","name":"Saint Martin","geonameId":3578421,"nameKo":"생마르탱"},{"code":"PM","name":"Saint Pierre and Miquelon","geonameId":3424932,"nameKo":"생피에르앤드미클롱"},{"code":"VC","name":"Saint Vincent and the Grenadines","geonameId":3577815,"nameKo":"세인트 빈센트 그레나딘"},{"code":"WS","name":"Samoa","geonameId":4034894,"nameKo":"사모아"},{"code":"SM","name":"San Marino","geonameId":3168068,"nameKo":"산마리노"},{"code":"ST","name":"Sao Tome and Principe","geonameId":2410758,"nameKo":"상투메 프린시페"},{"code":"SA","name":"Saudi Arabia","geonameId":102358,"nameKo":"사우디 아라비아"},{"code":"SN","name":"Senegal","geonameId":2245662,"nameKo":"세네갈"},{"code":"RS","name":"Serbia","geonameId":6290252,"nameKo":"세르비아"},{"code":"CS","name":"Serbia and Montenegro","geonameId":8505033,"nameKo":"세르비아 몬테네그로"},{"code":"SC","name":"Seychelles","geonameId":241170,"nameKo":"세이쉘"},{"code":"SL","name":"Sierra Leone","geonameId":2403846,"nameKo":"시에라리온"},{"code":"SG","name":"Singapore","geonameId":1880251,"nameKo":"싱가포르"},{"code":"SX","name":"Sint Maarten","geonameId":7609695,"nameKo":"신트마르턴"},{"code":"SK","name":"Slovakia","geonameId":3057568,"nameKo":"슬로바키아"},{"code":"SI","name":"Slovenia","geonameId":3190538,"nameKo":"슬로베니아"},{"code":"SB","name":"Solomon Islands","geonameId":2103350,"nameKo":"솔로몬 제도"},{"code":"SO","name":"Somalia","geonameId":51537,"nameKo":"소말리아"},{"code":"ZA","name":"South Africa","geonameId":953987,"nameKo":"남아프리카 공화국"},{"code":"GS","name":"South Georgia and the South Sandwich Islands","geonameId":3474415,"nameKo":"사우스조지아 사우스샌드위치 제도"},{"code":"KR","name":"South Korea","geonameId":1835841,"nameKo":"대한민국"},{"code":"SS","name":"South Sudan","geonameId":7909807,"nameKo":"남수단"},{"code":"ES","name":"Spain","geonameId":2510769,"nameKo":"스페인"},{"code":"LK","name":"Sri Lanka","geonameId":1227603,"nameKo":"스리랑카"},{"code":"SD","name":"Sudan","geonameId":366755,"nameKo":"수단"},{"code":"SR","name":"Suriname","geonameId":3382998,"nameKo":"수리남"},{"code":"SJ","name":"Svalbard and Jan Mayen","geonameId":607072,"nameKo":"스발바르제도-얀마웬섬"},{"code":"SE","name":"Sweden","geonameId":2661886,"nameKo":"스웨덴"},{"code":"CH","name":"Switzerland","geonameId":2658434,"nameKo":"스위스"},{"code":"SY","name":"Syria","geonameId":163843,"nameKo":"시리아"},{"code":"TW","name":"Taiwan","geonameId":1668284,"nameKo":"대만"},{"code":"TJ","name":"Tajikistan","geonameId":1220409,"nameKo":"타지크스탄"},{"code":"TZ","name":"Tanzania","geonameId":149590,"nameKo":"탄자니아"},{"code":"TH","name":"Thailand","geonameId":1605651,"nameKo":"태국"},{"code":"NL","name":"The Netherlands","geonameId":2750405,"nameKo":"네덜란드"},{"code":"TL","name":"Timor Leste","geonameId":1966436,"nameKo":"동티모르"},{"code":"TG","name":"Togo","geonameId":2363686,"nameKo":"토고"},{"code":"TK","name":"Tokelau","geonameId":4031074,"nameKo":"토켈라우"},{"code":"TO","name":"Tonga","geonameId":4032283,"nameKo":"통가"},{"code":"TT","name":"Trinidad and Tobago","geonameId":3573591,"nameKo":"트리니다드 토바고"},{"code":"TN","name":"Tunisia","geonameId":2464461,"nameKo":"튀니지"},{"code":"TR","name":"Turkey","geonameId":298795,"nameKo":"터키"},{"code":"TM","name":"Turkmenistan","geonameId":1218197,"nameKo":"투르크메니스탄"},{"code":"TC","name":"Turks and Caicos Islands","geonameId":3576916,"nameKo":"터크스 케이커스 제도"},{"code":"TV","name":"Tuvalu","geonameId":2110297,"nameKo":"투발루"},{"code":"VI","name":"U.S. Virgin Islands","geonameId":4796775,"nameKo":"미국령 버진아일랜드"},{"code":"UG","name":"Uganda","geonameId":226074,"nameKo":"우간다"},{"code":"UA","name":"Ukraine","geonameId":690791,"nameKo":"우크라이나"},{"code":"AE","name":"United Arab Emirates","geonameId":290557,"nameKo":"아랍에미리트"},{"code":"GB","name":"United Kingdom","geonameId":2635167,"nameKo":"영국"},{"code":"US","name":"United States","geonameId":6252001,"nameKo":"미국"},{"code":"UM","name":"United States Minor Outlying Islands","geonameId":5854968,"nameKo":"미국령 해외 제도"},{"code":"UY","name":"Uruguay","geonameId":3439705,"nameKo":"우루과이"},{"code":"UZ","name":"Uzbekistan","geonameId":1512440,"nameKo":"우즈베키스탄"},{"code":"VU","name":"Vanuatu","geonameId":2134431,"nameKo":"바누아투"},{"code":"VA","name":"Vatican","geonameId":3164670,"nameKo":"바티칸시티"},{"code":"VE","name":"Venezuela","geonameId":3625428,"nameKo":"베네주엘라"},{"code":"VN","name":"Vietnam","geonameId":1562822,"nameKo":"베트남"},{"code":"WF","name":"Wallis and Futuna","geonameId":4034749,"nameKo":"왈리스-푸투나 제도"},{"code":"EH","name":"Western Sahara","geonameId":2461445,"nameKo":"서사하라"},{"code":"YE","name":"Yemen","geonameId":69543,"nameKo":"예멘"},{"code":"ZM","name":"Zambia","geonameId":895949,"nameKo":"잠비아"},{"code":"ZW","name":"Zimbabwe","geonameId":878675,"nameKo":"짐바브웨"}]